NORAD_CAT_ID,OBJECT_NAME,OBJECT_TYPE,EPOCH,MEAN_MOTION,ECCENTRICITY,INCLINATION,RA_OF_ASC_NODE,ARG_OF_PERICENTER,MEAN_ANOMALY,BSTAR,MEAN_MOTION_DOT,MEAN_MOTION_DDOT,TLE_LINE0,TLE_LINE1,TLE_LINE2,SEMIMAJOR_AXIS,PERIOD,APOGEE,PERIGEE,DECAYED
56467.0,STARLINK-6055,PAYLOAD,2024-05-21 13:17:43,14.98322677,0.0002991,70.0004,341.4549,270.5021,89.5795,0.00012029,1.342e-05,0.0,0 STARLINK-6055,1 56467U 23064V   24142.55397356  .00001342  00000-0  12029-3 0  9996,2 56467  70.0004 341.4549 0002991 270.5021  89.5795 14.98322677 57665,6950.216,96.107,574.159,570.002,0.0
56467.0,STARLINK-6055,PAYLOAD,2024-05-21 14:53:51,14.98322225,0.0003059,70.0001,341.2865,271.4599,88.621,0.0001086,1.203e-05,0.0,0 STARLINK-6055,1 56467U 23064V   24142.62073441  .00001203  00000-0  10860-3 0  9997,2 56467  70.0001 341.2865 0003059 271.4599  88.6210 14.98322225 57310,6950.217,96.107,574.208,569.956,0.0
56467.0,STARLINK-6055,PAYLOAD,2024-05-21 21:18:23,14.98323484,0.0003049,70.0,340.613,270.2302,89.8508,0.0001118,1.241e-05,0.0,0 STARLINK-6055,1 56467U 23064V   24142.88777447  .00001241  00000-0  11180-3 0  9990,2 56467  70.0000 340.6130 0003049 270.2302  89.8508 14.98323484 57350,6950.213,96.107,574.197,569.959,0.0
56467.0,STARLINK-6055,PAYLOAD,2024-05-21 22:54:31,14.98324593,0.0003043,70.0001,340.4448,270.0503,90.0307,0.00012088,1.349e-05,0.0,0 STARLINK-6055,1 56467U 23064V   24142.95453370  .00001349  00000-0  12088-3 0  9991,2 56467  70.0001 340.4448 0003043 270.0503  90.0307 14.98324593 57360,6950.21,96.107,574.19,569.96,0.0
56467.0,STARLINK-6055,PAYLOAD,2024-05-22 21:20:24,14.98330439,0.0002856,70.0002,338.0891,263.2627,96.8207,-7.6191e-05,-1.002e-05,0.0,0 STARLINK-6055,1 56467U 23064V   24143.88917601 -.00001002  00000-0 -76191-4 0  9990,2 56467  70.0002 338.0891 0002856 263.2627  96.8207 14.98330439 57862,6950.192,96.107,574.042,570.072,0.0
56467.0,STARLINK-6055,PAYLOAD,2024-05-23 14:57:53,14.98330646,0.0002966,69.9998,336.237,264.5739,95.5082,3.3741e-05,3.1e-06,0.0,0 STARLINK-6055,1 56467U 23064V   24144.62353187  .00000310  00000-0  33741-4 0  9999,2 56467  69.9998 336.2370 0002966 264.5739  95.5082 14.98330646 57615,6950.191,96.107,574.117,569.994,0.0
56467.0,STARLINK-6055,PAYLOAD,2024-05-23 21:22:25,14.98330885,0.0002963,70.0,335.5636,265.2569,94.8252,3.771e-05,3.57e-06,0.0,0 STARLINK-6055,1 56467U 23064V   24144.89057155  .00000357  00000-0  37710-4 0  9995,2 56467  70.0000 335.5636 0002963 265.2569  94.8252 14.98330885 57655,6950.19,96.107,574.114,569.996,0.0
56467.0,STARLINK-6055,PAYLOAD,2024-05-23 22:58:33,14.98331414,0.0002968,70.0,335.3954,265.4284,94.6536,4.2366e-05,4.13e-06,0.0,0 STARLINK-6055,1 56467U 23064V   24144.95733103  .00000413  00000-0  42366-4 0  9992,2 56467  70.0000 335.3954 0002968 265.4284  94.6536 14.98331414 58021,6950.189,96.107,574.116,569.991,0.0
56467.0,STARLINK-6055,PAYLOAD,2024-05-24 13:23:46,14.9832843,0.0002847,70.0004,333.8796,268.9573,91.126,-2.8008e-05,-4.27e-06,0.0,0 STARLINK-6055,1 56467U 23064V   24145.55817629 -.00000427  00000-0 -28008-4 0  9999,2 56467  70.0004 333.8796 0002847 268.9573  91.1260 14.98328430 57756,6950.198,96.107,574.041,570.084,0.0
56467.0,STARLINK-6055,PAYLOAD,2024-05-24 21:24:26,14.9833072,0.0002972,69.9999,333.0368,265.4461,94.6358,-3.8782e-06,-1.39e-06,0.0,0 STARLINK-6055,1 56467U 23064V   24145.89197367 -.00000139  00000-0 -38782-5 0  9997,2 56467  69.9999 333.0368 0002972 265.4461  94.6358 14.98330720 57807,6950.191,96.107,574.121,569.99,0.0
56467.0,STARLINK-6055,PAYLOAD,2024-05-24 23:00:34,14.98331232,0.0002949,70.0,332.8686,265.5234,94.5588,1.171e-06,-7.9e-07,0.0,0 STARLINK-6055,1 56467U 23064V   24145.95873324 -.00000079  00000-0  11710-5 0  9992,2 56467  70.0000 332.8686 0002949 265.5234  94.5588 14.98331232 58170,6950.189,96.107,574.104,570.004,0.0
56467.0,STARLINK-6055,PAYLOAD,2024-05-25 13:25:47,14.9832991,0.000294,70.0,331.354,265.4732,94.6091,-2.024e-05,-3.34e-06,0.0,0 STARLINK-6055,1 56467U 23064V   24146.55957442 -.00000334  00000-0 -20240-4 0  9995,2 56467  70.0000 331.3540 0002940 265.4732  94.6091 14.98329910 57906,6950.193,96.107,574.102,570.015,0.0
56467.0,STARLINK-6055,PAYLOAD,2024-05-26 13:27:47,14.98329888,0.0003477,69.9996,328.8282,269.6884,90.3877,3.7507e-05,3.54e-06,0.0,0 STARLINK-6055,1 56467U 23064V   24147.56097209  .00000354  00000-0  37507-4 0  9997,2 56467  69.9996 328.8282 0003477 269.6884  90.3877 14.98329888 58417,6950.193,96.107,574.475,569.642,0.0
56467.0,STARLINK-6055,PAYLOAD,2024-05-26 15:03:55,14.98330601,0.0003402,69.9994,328.66,269.4444,90.6326,6.3668e-05,6.67e-06,0.0,0 STARLINK-6055,1 56467U 23064V   24147.62773091  .00000667  00000-0  63668-4 0  9998,2 56467  69.9994 328.6600 0003402 269.4444  90.6326 14.98330601 58063,6950.191,96.107,574.42,569.692,0.0
56467.0,STARLINK-6055,PAYLOAD,2024-05-26 21:28:28,14.98330241,0.0003456,69.9999,327.9876,271.7593,88.317,6.7137e-05,7.08e-06,0.0,0 STARLINK-6055,1 56467U 23064V   24147.89477120  .00000708  00000-0  67137-4 0  9992,2 56467  69.9999 327.9876 0003456 271.7593  88.3170 14.98330241 58101,6950.192,96.107,574.459,569.655,0.0
56467.0,STARLINK-6055,PAYLOAD,2024-05-27 13:29:49,14.9832828,0.0003282,69.9997,326.3049,271.3852,88.6931,5.0947e-06,-3.2e-07,0.0,0 STARLINK-6055,1 56467U 23064V   24148.56237362 -.00000032  00000-0  50947-5 0  9992,2 56467  69.9997 326.3049 0003282 271.3852  88.6931 14.98328280 58563,6950.198,96.107,574.344,569.782,0.0
56467.0,STARLINK-6055,PAYLOAD,2024-05-27 21:30:29,14.98329681,0.0003027,69.9999,325.4624,267.9145,92.1667,5.9554e-06,-2.2e-07,0.0,0 STARLINK-6055,1 56467U 23064V   24148.89617279 -.00000022  00000-0  59554-5 0  9999,2 56467  69.9999 325.4624 0003027 267.9145  92.1667 14.98329681 58255,6950.194,96.107,574.163,569.955,0.0
56467.0,STARLINK-6055,PAYLOAD,2024-05-28 13:31:49,14.98333416,0.0003073,69.9998,323.7794,269.1715,90.9092,4.021e-06,-4.5e-07,0.0,0 STARLINK-6055,1 56467U 23064V   24149.56376960 -.00000045  00000-0  40210-5 0  9997,2 56467  69.9998 323.7794 0003073 269.1715  90.9092 14.98333416 58711,6950.182,96.107,574.183,569.912,0.0
56467.0,STARLINK-6055,PAYLOAD,2024-05-28 19:56:21,14.98334767,0.0003057,69.9998,323.1059,268.8828,91.1981,2.135e-05,1.62e-06,0.0,0 STARLINK-6055,1 56467U 23064V   24149.83080755  .00000162  00000-0  21350-4 0  9993,2 56467  69.9998 323.1059 0003057 268.8828  91.1981 14.98334767 58396,6950.178,96.107,574.168,569.918,0.0
56467.0,STARLINK-6055,PAYLOAD,2024-05-29 13:33:50,14.98330076,0.0002972,70.0,321.2546,266.3823,93.6997,1.0061e-05,2.7e-07,0.0,0 STARLINK-6055,1 56467U 23064V   24150.56516935  .00000027  00000-0  10061-4 0  9996,2 56467  70.0000 321.2546 0002972 266.3823  93.6997 14.98330076 58861,6950.193,96.107,574.123,569.992,0.0
56467.0,STARLINK-6055,PAYLOAD,2024-05-29 21:34:30,14.98331073,0.0002963,70.0,320.4127,266.0408,94.0412,2.0813e-05,1.55e-06,0.0,0 STARLINK-6055,1 56467U 23064V   24150.89896822  .00000155  00000-0  20813-4 0  9996,2 56467  70.0000 320.4127 0002963 266.0408  94.0412 14.98331073 58554,6950.19,96.107,574.114,569.995,0.0
56467.0,STARLINK-6055,PAYLOAD,2024-05-30 13:35:51,14.98332879,0.0002914,70.0001,318.7294,265.5593,94.5233,-1.0312e-05,-2.16e-06,0.0,0 STARLINK-6055,1 56467U 23064V   24151.56656687 -.00000216  00000-0 -10312-4 0  9997,2 56467  70.0001 318.7294 0002914 265.5593  94.5233 14.98332879 59018,6950.184,96.107,574.074,570.024,0.0
56467.0,STARLINK-6055,PAYLOAD,2024-05-30 21:36:31,14.98334219,0.0002897,70.0001,317.8878,264.8959,95.187,5.8317e-06,-2.3e-07,0.0,0 STARLINK-6055,1 56467U 23064V   24151.90036477 -.00000023  00000-0  58317-5 0  9997,2 56467  70.0001 317.8878 0002897 264.8959  95.1870 14.98334219 58703,6950.18,96.107,574.058,570.031,0.0
56467.0,STARLINK-6055,PAYLOAD,2024-05-31 13:37:52,14.98331034,0.0002858,70.0001,316.2041,262.1357,97.9478,1.4463e-05,8e-07,0.0,0 STARLINK-6055,1 56467U 23064V   24152.56796500  .00000080  00000-0  14463-4 0  9995,2 56467  70.0001 316.2041 0002858 262.1357  97.9478 14.98331034 58805,6950.19,96.107,574.041,570.068,0.0
56467.0,STARLINK-6055,PAYLOAD,2024-05-31 20:02:24,14.98332829,0.0002935,69.9999,315.5303,269.9799,90.1024,2.689e-05,2.28e-06,0.0,0 STARLINK-6055,1 56467U 23064V   24152.83500358  .00000228  00000-0  26890-4 0  9990,2 56467  69.9999 315.5303 0002935 269.9799  90.1024 14.98332829 59202,6950.184,96.107,574.089,570.009,0.0
56467.0,STARLINK-6055,PAYLOAD,2024-06-01 13:39:53,14.98327173,0.0002887,69.9999,313.6786,269.7381,90.3447,-5.3178e-05,-7.27e-06,0.0,0 STARLINK-6055,1 56467U 23064V   24153.56936904 -.00000727  00000-0 -53178-4 0  9996,2 56467  69.9999 313.6786 0002887 269.7381  90.3447 14.98327173 59316,6950.202,96.107,574.073,570.06,0.0
56467.0,STARLINK-6055,PAYLOAD,2024-06-02 12:05:46,14.98326923,0.0003097,69.9997,311.3213,270.9882,89.0922,-2.3699e-05,-3.76e-06,0.0,0 STARLINK-6055,1 56467U 23064V   24154.50400892 -.00000376  00000-0 -23699-4 0  9998,2 56467  69.9997 311.3213 0003097 270.9882  89.0922 14.98326923 59098,6950.202,96.107,574.22,569.915,0.0
56467.0,STARLINK-6055,PAYLOAD,2024-06-03 04:07:06,14.98334244,0.0003183,69.9994,309.6375,269.0519,91.0276,-2.1392e-05,-3.48e-06,0.0,0 STARLINK-6055,1 56467U 23064V   24155.17160364 -.00000348  00000-0 -21392-4 0  9996,2 56467  69.9994 309.6375 0003183 269.0519  91.0276 14.98334244 59557,6950.18,96.107,574.257,569.833,0.0
56467.0,STARLINK-6055,PAYLOAD,2024-06-03 12:07:46,14.98330944,0.0003151,69.9993,308.7959,268.9134,91.1664,6.5419e-05,6.88e-06,0.0,0 STARLINK-6055,1 56467U 23064V   24155.50540342  .00000688  00000-0  65419-4 0  9994,2 56467  69.9993 308.7959 0003151 268.9134  91.1664 14.98330944 59241,6950.19,96.107,574.245,569.865,0.0
56467.0,STARLINK-6055,PAYLOAD,2024-06-03 20:08:26,14.98334957,0.0003139,69.9993,307.9552,270.7436,89.3363,0.00010265,1.132e-05,0.0,0 STARLINK-6055,1 56467U 23064V   24155.83919940  .00001132  00000-0  10265-3 0  9997,2 56467  69.9993 307.9552 0003139 270.7436  89.3363 14.98334957 59291,6950.178,96.107,574.224,569.861,0.0
